
    {
      "objectName": "STARLINK-1871",
      "objectId": "2020-088AM",
      "noradId": 47157,
      "epochUtc": "2026-03-16T20:02:17.922624Z",
      "meanMotionRevPerDay": 15.30180191,
      "eccentricity": 0.000125,
      "inclinationDeg": 53.1587,
      "raanDeg": 263.1798,
      "argPerigeeDeg": 78.7438,
      "meanAnomalyDeg": 281.3703,
      "bstar": 0.00022372,
      "meanMotionDot": 0.00006268,
      "meanMotionDdot": 0,
      "elementSetNo": 999,
      "revAtEpoch": 29301
    },
    {
      "objectName": "STARLINK-1888",
      "objectId": "2020-088BB",
      "noradId": 47171,
      "epochUtc": "2026-03-16T17:41:43.559808Z",
      "meanMotionRevPerDay": 15.49698618,
      "eccentricity": 0.0003205,
      "inclinationDeg": 53.051,
      "raanDeg": 245.7228,
      "argPerigeeDeg": 199.6733,
      "meanAnomalyDeg": 160.4151,
      "bstar": 0.0017708,
      "meanMotionDot": 0.00100711,
      "meanMotionDdot": 0,
      "elementSetNo": 999,
      "revAtEpoch": 29324
    },
    {
      "objectName": "STARLINK-1913",
      "objectId": "2020-088BK",
      "noradId": 47179,
      "epochUtc": "2026-03-16T20:37:13.626336Z",
      "meanMotionRevPerDay": 15.30175401,
      "eccentricity": 0.0001249,
      "inclinationDeg": 53.1595,
      "raanDeg": 273.7544,
      "argPerigeeDeg": 112.1417,
      "meanAnomalyDeg": 247.9717,
      "bstar": 0.00022393,
      "meanMotionDot": 0.00006274,
      "meanMotionDdot": 0,
      "elementSetNo": 999,
      "revAtEpoch": 29286
    },
    {
      "objectName": "STARLINK-2103",
      "objectId": "2021-005AL",
      "noradId": 47383,
      "epochUtc": "2026-03-16T01:37:06.332160Z",
      "meanMotionRevPerDay": 15.31009791,
      "eccentricity": 0.00014935,
      "inclinationDeg": 53.1594,
      "raanDeg": 344.6594,
      "argPerigeeDeg": 99.262,
      "meanAnomalyDeg": 260.855,
      "bstar": 0.00014397617,
      "meanMotionDot": 0.00004013,
      "meanMotionDdot": 0,
      "elementSetNo": 999,
      "revAtEpoch": 28469
    },
    {
      "objectName": "STARLINK-1964",
      "objectId": "2021-009T",
      "noradId": 47565,
      "epochUtc": "2026-03-16T20:17:24.204192Z",
      "meanMotionRevPerDay": 15.68488251,
      "eccentricity": 0.0005272,
      "inclinationDeg": 53.0438,
      "raanDeg": 293.9341,
      "argPerigeeDeg": 330.3613,
      "meanAnomalyDeg": 29.7104,
      "bstar": 0.00065787,
      "meanMotionDot": 0.00075954,
      "meanMotionDdot": 0,
      "elementSetNo": 999,
      "revAtEpoch": 28265
    },
    {
      "objectName": "STARLINK-1971",
      "objectId": "2021-009AA",
      "noradId": 47572,
      "epochUtc": "2026-03-16T20:00:01.999008Z",
      "meanMotionRevPerDay": 15.94059967,
      "eccentricity": 0.0003364,
      "inclinationDeg": 53.0357,
      "raanDeg": 285.569,
      "argPerigeeDeg": 288.8775,
      "meanAnomalyDeg": 322.482,
      "bstar": 0.00093106,
      "meanMotionDot": 0.00349451,
      "meanMotionDdot": 0.000058693,
      "elementSetNo": 999,
      "revAtEpoch": 597
    },
    {
      "objectName": "STARLINK-1975",
      "objectId": "2021-009AB",
      "noradId": 47573,
      "epochUtc": "2026-03-16T20:00:01.999008Z",
      "meanMotionRevPerDay": 15.80080797,
      "eccentricity": 0.0002945,
      "inclinationDeg": 53.0493,
      "raanDeg": 273.2887,
      "argPerigeeDeg": 164.4282,
      "meanAnomalyDeg": 279.8344,
      "bstar": 0.00050879,
      "meanMotionDot": 0.00097267,
      "meanMotionDdot": 0,
      "elementSetNo": 999,
      "revAtEpoch": 601
    },
    {
      "objectName": "STARLINK-1993",
      "objectId": "2021-009AS",
      "noradId": 47588,
      "epochUtc": "2026-03-16T21:09:38.637216Z",
      "meanMotionRevPerDay": 15.7028926,
      "eccentricity": 0.0002421,
      "inclinationDeg": 53.0443,
      "raanDeg": 303.781,
      "argPerigeeDeg": 309.1568,
      "meanAnomalyDeg": 50.9233,
      "bstar": 0.00077189,
      "meanMotionDot": 0.00096336,
      "meanMotionDdot": 0,
      "elementSetNo": 999,
      "revAtEpoch": 28252
    },
    {
      "objectName": "STARLINK-2021",
      "objectId": "2021-009BJ",
      "noradId": 47604,
      "epochUtc": "2026-03-16T20:23:10.902336Z",
      "meanMotionRevPerDay": 15.66513627,
      "eccentricity": 0.0006135,
      "inclinationDeg": 53.0435,
      "raanDeg": 300.7918,
      "argPerigeeDeg": 154.5115,
      "meanAnomalyDeg": 205.6204,
      "bstar": 0.00072246,
      "meanMotionDot": 0.00077025,
      "meanMotionDdot": 0,
      "elementSetNo": 999,
      "revAtEpoch": 28256
    },
    {
      "objectName": "STARLINK-1655",
      "objectId": "2021-012D",
      "noradId": 47623,
      "epochUtc": "2026-03-16T20:37:19.585344Z",
      "meanMotionRevPerDay": 15.66054419,
      "eccentricity": 0.0004767,
      "inclinationDeg": 53.0422,
      "raanDeg": 290.8594,
      "argPerigeeDeg": 303.5311,
      "meanAnomalyDeg": 56.5248,
      "bstar": 0.000691,
      "meanMotionDot": 0.00072222,
      "meanMotionDdot": 0,
      "elementSetNo": 999,
      "revAtEpoch": 28259
    },
    {
      "objectName": "STARLINK-1669",
      "objectId": "2021-012E",
      "noradId": 47624,
      "epochUtc": "2026-03-16T20:00:01.999008Z",
      "meanMotionRevPerDay": 15.78647019,
      "eccentricity": 0.0007576,
      "inclinationDeg": 53.0338,
      "raanDeg": 316.2228,
      "argPerigeeDeg": 122.5984,
      "meanAnomalyDeg": 49.1232,
      "bstar": 0.0014516,
      "meanMotionDot": 0.00266769,
      "meanMotionDdot": 0,
      "elementSetNo": 999,
      "revAtEpoch": 599
    },
    {
      "objectName": "STARLINK-2019",
      "objectId": "2021-012X",
      "noradId": 47641,
      "epochUtc": "2026-03-16T19:14:24.491040Z",
      "meanMotionRevPerDay": 15.59655857,
      "eccentricity": 0.0002543,
      "inclinationDeg": 53.0451,
      "raanDeg": 268.2366,
      "argPerigeeDeg": 139.4331,
      "meanAnomalyDeg": 220.6871,
      "bstar": 0.0014523,
      "meanMotionDot": 0.00119246,
      "meanMotionDdot": 0,
      "elementSetNo": 999,
      "revAtEpoch": 28288
    },
    {
      "objectName": "STARLINK-2022",
      "objectId": "2021-012Z",
      "noradId": 47643,
      "epochUtc": "2026-03-16T20:15:57.828384Z",
      "meanMotionRevPerDay": 16.0389092,
      "eccentricity": 0.0005577,
      "inclinationDeg": 53.007,
      "raanDeg": 300.6299,
      "argPerigeeDeg": 239.4933,
      "meanAnomalyDeg": 120.5547,
      "bstar": 0.00092327,
      "meanMotionDot": 0.00606897,
      "meanMotionDdot": 0.00018483,
      "elementSetNo": 999,
      "revAtEpoch": 28244
    }