STARLINK-1871           
1 47157U 20088AM  26075.83492966  .00006268  00000+0  22372-3 0  9999
2 47157  53.1587 263.1798 0001250  78.7438 281.3703 15.30180191293014
STARLINK-1888           
1 47171U 20088BB  26075.73730972  .00100711  00000+0  17708-2 0  9990
2 47171  53.0510 245.7228 0003205 199.6733 160.4151 15.49698618293249
STARLINK-1913           
1 47179U 20088BK  26075.85918549  .00006274  00000+0  22393-3 0  9995
2 47179  53.1595 273.7544 0001249 112.1417 247.9717 15.30175401292864
STARLINK-2103           
1 47383U 21005AL  26075.06743440  .00004013  00000+0  14398-3 0  9996
2 47383  53.1594 344.6594 0001493  99.2620 260.8550 15.31009791284695
STARLINK-1964           
1 47565U 21009T   26075.84541903  .00075954  00000+0  65787-3 0  9998
2 47565  53.0438 293.9341 0005272 330.3613  29.7104 15.68488251282652
STARLINK-1971           
1 47572U 21009AA  26075.83335647  .00349451  58693-4  93106-3 0  9999
2 47572  53.0357 285.5690 0003364 288.8775 322.4820 15.94059967  5973
STARLINK-1975           
1 47573U 21009AB  26075.83335647  .00097267  00000+0  50879-3 0  9999
2 47573  53.0493 273.2887 0002945 164.4282 279.8344 15.80080797  6015
STARLINK-1993           
1 47588U 21009AS  26075.88169719  .00096336  00000+0  77189-3 0  9994
2 47588  53.0443 303.7810 0002421 309.1568  50.9233 15.70289260282527
STARLINK-2021           
1 47604U 21009BJ  26075.84943174  .00077025  00000+0  72246-3 0  9997
2 47604  53.0435 300.7918 0006135 154.5115 205.6204 15.66513627282562
STARLINK-1655           
1 47623U 21012D   26075.85925446  .00072222  00000+0  69100-3 0  9994
2 47623  53.0422 290.8594 0004767 303.5311  56.5248 15.66054419282594
STARLINK-1669           
1 47624U 21012E   26075.83335647  .00266769  00000+0  14516-2 0  9992
2 47624  53.0338 316.2228 0007576 122.5984  49.1232 15.78647019  5999
STARLINK-2019           
1 47641U 21012X   26075.80167235  .00119246  00000+0  14523-2 0  9999
2 47641  53.0451 268.2366 0002543 139.4331 220.6871 15.59655857282883
STARLINK-2022           
1 47643U 21012Z   26075.84441931  .00606897  18483-3  92327-3 0  9993
2 47643  53.0070 300.6299 0005577 239.4933 120.5547 16.03890920282449
